STARLINK-37067          
1 68086U 26042T   26086.76424845  .00368124  00000+0  17824-2 0  9991
2 68086  53.1575 104.0449 0001761  76.9842 283.1377 15.80968990  4942
STARLINK-37062          
1 68087U 26042U   26086.76349593  .00400558  00000+0  19312-2 0  9990
2 68087  53.1576 104.0397 0001888  71.4956 288.6272 15.80975264  4948
STARLINK-37059          
1 68088U 26042V   26086.76281956  .00142149  00000+0  72174-3 0  9994
2 68088  53.1571 104.0353 0005062  47.7998 312.3453 15.80561360  4940
STARLINK-37004          
1 68089U 26042W   26086.83335648  .00066223  00000+0  43334-3 0  9995
2 68089  53.1591 103.7154 0000967  93.1729 291.2398 15.75210120  4968
STARLINK-36320          
1 68090U 26042X   26086.15385821  .00375248  00000+0  23254-2 0  9998
2 68090  53.1593 107.3571 0002763 139.4736 220.6491 15.75432358  4849
STARLINK-36324          
1 68091U 26042Y   26086.66668981 -.00080651  00000+0 -52598-3 0  9993
2 68091  53.1590 104.8665 0001015  79.2879 283.0326 15.75281960  4932
STARLINK-36896          
1 68092U 26042Z   26086.46655272  .00204089  00000+0  13015-2 0  9992
2 68092  53.1600 105.7516 0001471  99.5875 260.5312 15.75276808  4881
STARLINK-36251          
1 68093U 26042AA  26086.75825293  .00432595  00000+0  20763-2 0  9990
2 68093  53.1578 104.0040 0003313  80.0074 280.1322 15.80988044  4936
STARLINK-36787          
1 68094U 26042AB  26086.66668981 -.00060756  00000+0 -39459-3 0  9991
2 68094  53.1593 104.8129 0001085  94.2361 293.8406 15.75263541  4936
STARLINK-36790          
1 68095U 26042AC  26086.83335648 -.00059663  00000+0 -38717-3 0  9993
2 68095  53.1594 103.7723 0001219 100.0941 256.6816 15.75274241  4958
STARLINK-36328          
1 68096U 26042AD  26086.50369902 -.00796908  00000+0 -49254-2 0  9995
2 68096  53.1583 105.2594 0000907 116.3541 243.7574 15.78521578  4891
STARLINK-36853          
1 68097U 26042AE  26086.75750165  .00411016  00000+0  19783-2 0  9994
2 68097  53.1580 103.9995 0003142  75.7895 284.3477 15.80984131  4932
GLOBAL-34               
1 68098U 26043A   26086.73325342  .00011422  00000+0  37117-3 0  9998
2 68098  42.0227 331.3316 0003922  47.3241 312.7927 15.31831597  3330
STARLINK-37022          
1 68101U 26044A   26086.88332044  .00146077  00000+0  96138-3 0  9990
2 68101  97.2843  47.9132 0001290  83.6188 276.5224 15.75242898  4343
STARLINK-37046          
1 68102U 26044B   26086.88226473  .00127554  00000+0  84200-3 0  9995
2 68102  97.2842  47.9151 0001933  97.7234 262.4251 15.75225771  4341
STARLINK-37018          
1 68103U 26044C   26086.88085340  .00123089  00000+0  81307-3 0  9996
2 68103  97.2842  47.9170 0001715 108.4615 251.6836 15.75223825  4341
